{"type": "FeatureCollection", "features": [ {"type": "Feature", "properties": {"norad_id": 31325, "name": "FENGYUN 1C DEB", "group": "fengyun-1c-debris", "lat": -78.77759483521365, "lon": -142.82261735028897, "alt_km": 823.7027596562893, "timestamp": "2025-12-21T20:41:08.242162+00:00", "meta": {"OBJECT_NAME": "FENGYUN 1C DEB", "OBJECT_ID": "1999-025BQD", "EPOCH": "2025-12-17T00:12:23.735520", "MEAN_MOTION": 14.16922892, "ECCENTRICITY": 0.00720914, "INCLINATION": 98.9915, "RA_OF_ASC_NODE": 85.2122, "ARG_OF_PERICENTER": 208.4071, "MEAN_ANOMALY": 151.3165, "EPHEMERIS_TYPE": 0, "CLASSIFICATION_TYPE": "U", "NORAD_CAT_ID": 31325, "ELEMENT_SET_NO": 999, "REV_AT_EPOCH": 59838, "BSTAR": 0.0016097339, "MEAN_MOTION_DOT": 3.269e-05, "MEAN_MOTION_DDOT": 0}, "tle": {"line1": "1 31325U 99025BQD 25351.00860805  .00003269  00000+0  16097-2 0  9996", "line2": "2 31325  98.9915  85.2122 0072091 208.4071 151.3165 14.16922892598387"}}, "geometry": {"type": "Point", "coordinates": [-142.82261735028897, -78.77759483521365]}}, {"type": "Feature", "properties": {"norad_id": 31326, "name": "FENGYUN 1C DEB", "group": "fengyun-1c-debris", "lat": 72.56636581241521, "lon": -151.08058890427176, "alt_km": 557.8743185450139, "timestamp": "2025-12-21T20:41:08.242171+00:00", "meta": {"OBJECT_NAME": "FENGYUN 1C DEB", "OBJECT_ID": "1999-025BQE", "EPOCH": "2025-12-15T15:32:28.923936", "MEAN_MOTION": 15.00424804, "ECCENTRICITY": 0.00131933, "INCLINATION": 98.9962, "RA_OF_ASC_NODE": 232.0333, "ARG_OF_PERICENTER": 356.0949, "MEAN_ANOMALY": 4.0165, "EPHEMERIS_TYPE": 0, "CLASSIFICATION_TYPE": "U", "NORAD_CAT_ID": 31326, "ELEMENT_SET_NO": 999, "REV_AT_EPOCH": 73789, "BSTAR": 0.0045407433, "MEAN_MOTION_DOT": 0.00057569, "MEAN_MOTION_DDOT": 0}, "tle": {"line1": "1 31326U 99025BQE 25349.64755699  .00057569  00000+0  45407-2 0  9997", "line2": "2 31326  98.9962 232.0333 0013193 356.0949   4.0165 15.00424804737897"}}, "geometry": {"type": "Point", "coordinates": [-151.08058890427176, 72.56636581241521]}}, {"type": "Feature", "properties": {"norad_id": 31327, "name": "FENGYUN 1C DEB", "group": "fengyun-1c-debris", "lat": -48.62846604011327, "lon": 168.4763004835196, "alt_km": 559.3636967659259, "timestamp": "2025-12-21T20:41:08.242180+00:00", "meta": {"OBJECT_NAME": "FENGYUN 1C DEB", "OBJECT_ID": "1999-025BQF", "EPOCH": "2025-12-20T05:31:58.833120", "MEAN_MOTION": 15.11282941, "ECCENTRICITY": 0.0085712, "INCLINATION": 98.9858, "RA_OF_ASC_NODE": 356.9117, "ARG_OF_PERICENTER": 345.3944, "MEAN_ANOMALY": 14.4806, "EPHEMERIS_TYPE": 0, "CLASSIFICATION_TYPE": "U", "NORAD_CAT_ID": 31327, "ELEMENT_SET_NO": 999, "REV_AT_EPOCH": 212, "BSTAR": 0.0010939, "MEAN_MOTION_DOT": 0.00020067, "MEAN_MOTION_DDOT": 0}, "tle": {"line1": "1 31327U 99025BQF 25354.23054205  .00020067  00000+0  10939-2 0  9999", "line2": "2 31327  98.9858 356.9117 0085712 345.3944  14.4806 15.11282941  2124"}}, "geometry": {"type": "Point", "coordinates": [168.4763004835196, -48.62846604011327]}}, {"type": "Feature", "properties": {"norad_id": 31328, "name": "FENGYUN 1C DEB", "group": "fengyun-1c-debris", "lat": -40.378939235236516, "lon": 142.09103927591687, "alt_km": 737.8334996221483, "timestamp": "2025-12-21T20:41:08.242189+00:00", "meta": {"OBJECT_NAME": "FENGYUN 1C DEB", "OBJECT_ID": "1999-025BQG", "EPOCH": "2025-12-19T15:33:38.140704", "MEAN_MOTION": 14.28947563, "ECCENTRICITY": 0.0103955, "INCLINATION": 98.4838, "RA_OF_ASC_NODE": 327.2296, "ARG_OF_PERICENTER": 195.9959, "MEAN_ANOMALY": 163.7933, "EPHEMERIS_TYPE": 0, "CLASSIFICATION_TYPE": "U", "NORAD_CAT_ID": 31328, "ELEMENT_SET_NO": 999, "REV_AT_EPOCH": 97561, "BSTAR": 5.1829084e-05, "MEAN_MOTION_DOT": 9.6e-07, "MEAN_MOTION_DDOT": 0}, "tle": {"line1": "1 31328U 99025BQG 25353.64835811  .00000096  00000+0  51829-4 0  9999", "line2": "2 31328  98.4838 327.2296 0103955 195.9959 163.7933 14.28947563975619"}}, "geometry": {"type": "Point", "coordinates": [142.09103927591687, -40.378939235236516]}}, {"type": "Feature", "properties": {"norad_id": 31330, "name": "FENGYUN 1C DEB", "group": "fengyun-1c-debris", "lat": -5.929573015444395, "lon": -19.14817049145133, "alt_km": 529.2391845128905, "timestamp": "2025-12-21T20:41:08.242198+00:00", "meta": {"OBJECT_NAME": "FENGYUN 1C DEB", "OBJECT_ID": "1999-025BQJ", "EPOCH": "2025-12-20T22:19:32.703168", "MEAN_MOTION": 15.12943512, "ECCENTRICITY": 0.0002019, "INCLINATION": 98.8837, "RA_OF_ASC_NODE": 160.6986, "ARG_OF_PERICENTER": 225.4305, "MEAN_ANOMALY": 288.8229, "EPHEMERIS_TYPE": 0, "CLASSIFICATION_TYPE": "U", "NORAD_CAT_ID": 31330, "ELEMENT_SET_NO": 999, "REV_AT_EPOCH": 97253, "BSTAR": 0.0063697, "MEAN_MOTION_DOT": 0.00113924, "MEAN_MOTION_DDOT": 0}, "tle": {"line1": "1 31330U 99025BQJ 25354.93023962  .00113924  00000+0  63697-2 0  9990", "line2": "2 31330  98.8837 160.6986 0002019 225.4305 288.8229 15.12943512972532"}}, "geometry": {"type": "Point", "coordinates": [-19.14817049145133, -5.929573015444395]}}, {"type": "Feature", "properties": {"norad_id": 31331, "name": "FENGYUN 1C DEB", "group": "fengyun-1c-debris", "lat": -8.939218347243957, "lon": 22.835435783198648, "alt_km": 933.293078302052, "timestamp": "2025-12-21T20:41:08.242207+00:00", "meta": {"OBJECT_NAME": "FENGYUN 1C DEB", "OBJECT_ID": "1999-025BQK", "EPOCH": "2025-12-19T07:00:29.877408", "MEAN_MOTION": 14.00628517, "ECCENTRICITY": 0.0053435, "INCLINATION": 98.8725, "RA_OF_ASC_NODE": 18.9328, "ARG_OF_PERICENTER": 164.3513, "MEAN_ANOMALY": 195.9319, "EPHEMERIS_TYPE": 0, "CLASSIFICATION_TYPE": "U", "NORAD_CAT_ID": 31331, "ELEMENT_SET_NO": 999, "REV_AT_EPOCH": 63948, "BSTAR": 0.00038925, "MEAN_MOTION_DOT": 5.44e-06, "MEAN_MOTION_DDOT": 0}, "tle": {"line1": "1 31331U 99025BQK 25353.29201247  .00000544  00000+0  38925-3 0  9993", "line2": "2 31331  98.8725  18.9328 0053435 164.3513 195.9319 14.00628517639487"}}, "geometry": {"type": "Point", "coordinates": [22.835435783198648, -8.939218347243957]}}, {"type": "Feature", "properties": {"norad_id": 31332, "name": "FENGYUN 1C DEB", "group": "fengyun-1c-debris", "lat": 2.209169689517559, "lon": -173.7330319195453, "alt_km": 891.4843266965045, "timestamp": "2025-12-21T20:41:08.242216+00:00", "meta": {"OBJECT_NAME": "FENGYUN 1C DEB", "OBJECT_ID": "1999-025BQL", "EPOCH": "2025-12-20T12:14:48.156576", "MEAN_MOTION": 14.11866543, "ECCENTRICITY": 0.00496473, "INCLINATION": 98.7046, "RA_OF_ASC_NODE": 4.6167, "ARG_OF_PERICENTER": 3.0242, "MEAN_ANOMALY": 148.531, "EPHEMERIS_TYPE": 0, "CLASSIFICATION_TYPE": "U", "NORAD_CAT_ID": 31332, "ELEMENT_SET_NO": 999, "REV_AT_EPOCH": 96081, "BSTAR": 0.00066915531, "MEAN_MOTION_DOT": 1.193e-05, "MEAN_MOTION_DDOT": 0}, "tle": {"line1": "1 31332U 99025BQL 25354.51027959  .00001193  00000+0  66916-3 0  9998", "line2": "2 31332  98.7046   4.6167 0049647   3.0242 148.5310 14.11866543960818"}}, "geometry": {"type": "Point", "coordinates": [-173.7330319195453, 2.209169689517559]}}, {"type": "Feature", "properties": {"norad_id": 31333, "name": "FENGYUN 1C DEB", "group": "fengyun-1c-debris", "lat": 24.848650548488138, "lon": -165.96451911150155, "alt_km": 866.3206786551928, "timestamp": "2025-12-21T20:41:08.242225+00:00", "meta": {"OBJECT_NAME": "FENGYUN 1C DEB", "OBJECT_ID": "1999-025BQM", "EPOCH": "2025-12-20T18:42:54.770112", "MEAN_MOTION": 14.26566831, "ECCENTRICITY": 0.00982731, "INCLINATION": 98.4277, "RA_OF_ASC_NODE": 9.0567, "ARG_OF_PERICENTER": 2.9268, "MEAN_ANOMALY": 357.2467, "EPHEMERIS_TYPE": 0, "CLASSIFICATION_TYPE": "U", "NORAD_CAT_ID": 31333, "ELEMENT_SET_NO": 999, "REV_AT_EPOCH": 96706, "BSTAR": 0.00048897512, "MEAN_MOTION_DOT": 1.199e-05, "MEAN_MOTION_DDOT": 0}, "tle": {"line1": "1 31333U 99025BQM 25354.77980058  .00001199  00000+0  48898-3 0  9990", "line2": "2 31333  98.4277   9.0567 0098273   2.9268 357.2467 14.26566831967069"}}, "geometry": {"type": "Point", "coordinates": [-165.96451911150155, 24.848650548488138]}}, {"type": "Feature", "properties": {"norad_id": 31336, "name": "FENGYUN 1C DEB", "group": "fengyun-1c-debris", "lat": -60.15943164524879, "lon": 66.01019774664198, "alt_km": 829.4882893898075, "timestamp": "2025-12-21T20:41:08.242233+00:00", "meta": {"OBJECT_NAME": "FENGYUN 1C DEB", "OBJECT_ID": "1999-025BQQ", "EPOCH": "2025-12-21T09:34:38.054784", "MEAN_MOTION": 14.38717177, "ECCENTRICITY": 0.00940403, "INCLINATION": 98.4636, "RA_OF_ASC_NODE": 50.5095, "ARG_OF_PERICENTER": 93.0045, "MEAN_ANOMALY": 330.3831, "EPHEMERIS_TYPE": 0, "CLASSIFICATION_TYPE": "U", "NORAD_CAT_ID": 31336, "ELEMENT_SET_NO": 999, "REV_AT_EPOCH": 97915, "BSTAR": 0.00023870045, "MEAN_MOTION_DOT": 7.27e-06, "MEAN_MOTION_DDOT": 0}, "tle": {"line1": "1 31336U 99025BQQ 25355.39905156  .00000727  00000+0  23870-3 0  9997", "line2": "2 31336  98.4636  50.5095 0094040  93.0045 330.3831 14.38717177979154"}}, "geometry": {"type": "Point", "coordinates": [66.01019774664198, -60.15943164524879]}}, {"type": "Feature", "properties": {"norad_id": 31338, "name": "FENGYUN 1C DEB", "group": "fengyun-1c-debris", "lat": 5.496486854400564, "lon": -165.09689085846009, "alt_km": 812.5903329573912, "timestamp": "2025-12-21T20:41:08.242242+00:00", "meta": {"OBJECT_NAME": "FENGYUN 1C DEB", "OBJECT_ID": "1999-025BQS", "EPOCH": "2025-12-21T07:08:18.738240", "MEAN_MOTION": 14.20804956, "ECCENTRICITY": 0.007196, "INCLINATION": 98.7165, "RA_OF_ASC_NODE": 195.1923, "ARG_OF_PERICENTER": 84.0932, "MEAN_ANOMALY": 276.8441, "EPHEMERIS_TYPE": 0, "CLASSIFICATION_TYPE": "U", "NORAD_CAT_ID": 31338, "ELEMENT_SET_NO": 999, "REV_AT_EPOCH": 63779, "BSTAR": 0.0018605, "MEAN_MOTION_DOT": 4.083e-05, "MEAN_MOTION_DDOT": 0}, "tle": {"line1": "1 31338U 99025BQS 25355.29743910  .00004083  00000+0  18605-2 0  9994", "line2": "2 31338  98.7165 195.1923 0071960  84.0932 276.8441 14.20804956637798"}}, "geometry": {"type": "Point", "coordinates": [-165.09689085846009, 5.496486854400564]}}]}